{"type": "FeatureCollection", "features": [ {"type": "Feature", "properties": {"norad_id": 36278, "name": "FENGYUN 1C DEB", "group": "fengyun-1c-debris", "lat": 3.438279469615597, "lon": -85.52278081197994, "alt_km": 844.2636703268199, "timestamp": "2025-12-22T11:33:20.728018+00:00", "meta": {"OBJECT_NAME": "FENGYUN 1C DEB", "OBJECT_ID": "1999-025DXF", "EPOCH": "2025-12-18T00:48:19.487232", "MEAN_MOTION": 14.17390163, "ECCENTRICITY": 0.00606793, "INCLINATION": 99.1246, "RA_OF_ASC_NODE": 270.466, "ARG_OF_PERICENTER": 275.7743, "MEAN_ANOMALY": 83.6515, "EPHEMERIS_TYPE": 0, "CLASSIFICATION_TYPE": "U", "NORAD_CAT_ID": 36278, "ELEMENT_SET_NO": 999, "REV_AT_EPOCH": 93551, "BSTAR": 0.00036894737, "MEAN_MOTION_DOT": 7.13e-06, "MEAN_MOTION_DDOT": 0}, "tle": {"line1": "1 36278U 99025DXF 25352.03355888  .00000713  00000+0  36895-3 0  9992", "line2": "2 36278  99.1246 270.4660 0060679 275.7743  83.6515 14.17390163935513"}}, "geometry": {"type": "Point", "coordinates": [-85.52278081197994, 3.438279469615597]}}, {"type": "Feature", "properties": {"norad_id": 36279, "name": "FENGYUN 1C DEB", "group": "fengyun-1c-debris", "lat": -65.8100934349712, "lon": -6.316973151878321, "alt_km": 854.043624582584, "timestamp": "2025-12-22T11:33:20.728027+00:00", "meta": {"OBJECT_NAME": "FENGYUN 1C DEB", "OBJECT_ID": "1999-025DXG", "EPOCH": "2025-12-18T17:54:37.410912", "MEAN_MOTION": 14.14731224, "ECCENTRICITY": 0.00627999, "INCLINATION": 98.5619, "RA_OF_ASC_NODE": 330.5051, "ARG_OF_PERICENTER": 38.3963, "MEAN_ANOMALY": 322.1656, "EPHEMERIS_TYPE": 0, "CLASSIFICATION_TYPE": "U", "NORAD_CAT_ID": 36279, "ELEMENT_SET_NO": 999, "REV_AT_EPOCH": 89124, "BSTAR": 0.00011213671, "MEAN_MOTION_DOT": 1.78e-06, "MEAN_MOTION_DDOT": 0}, "tle": {"line1": "1 36279U 99025DXG 25352.74626633  .00000178  00000+0  11214-3 0  9993", "line2": "2 36279  98.5619 330.5051 0062799  38.3963 322.1656 14.14731224891247"}}, "geometry": {"type": "Point", "coordinates": [-6.316973151878321, -65.8100934349712]}}, {"type": "Feature", "properties": {"norad_id": 36280, "name": "FENGYUN 1C DEB", "group": "fengyun-1c-debris", "lat": 21.497454397161917, "lon": -151.29480521404403, "alt_km": 882.5720344638385, "timestamp": "2025-12-22T11:33:20.728037+00:00", "meta": {"OBJECT_NAME": "FENGYUN 1C DEB", "OBJECT_ID": "1999-025DXH", "EPOCH": "2025-12-20T20:29:20.214816", "MEAN_MOTION": 14.09762014, "ECCENTRICITY": 0.00628036, "INCLINATION": 98.7661, "RA_OF_ASC_NODE": 23.6358, "ARG_OF_PERICENTER": 42.5418, "MEAN_ANOMALY": 138.3217, "EPHEMERIS_TYPE": 0, "CLASSIFICATION_TYPE": "U", "NORAD_CAT_ID": 36280, "ELEMENT_SET_NO": 999, "REV_AT_EPOCH": 86468, "BSTAR": 0.00065706683, "MEAN_MOTION_DOT": 1.133e-05, "MEAN_MOTION_DDOT": 0}, "tle": {"line1": "1 36280U 99025DXH 25354.85370619  .00001133  00000+0  65707-3 0  9997", "line2": "2 36280  98.7661  23.6358 0062803  42.5418 138.3217 14.09762014864689"}}, "geometry": {"type": "Point", "coordinates": [-151.29480521404403, 21.497454397161917]}}, {"type": "Feature", "properties": {"norad_id": 36281, "name": "FENGYUN 1C DEB", "group": "fengyun-1c-debris", "lat": 10.75474495964911, "lon": 99.69274934735972, "alt_km": 1004.2923447272997, "timestamp": "2025-12-22T11:33:20.728047+00:00", "meta": {"OBJECT_NAME": "FENGYUN 1C DEB", "OBJECT_ID": "1999-025DXJ", "EPOCH": "2025-12-20T00:30:26.383680", "MEAN_MOTION": 13.60294135, "ECCENTRICITY": 0.02913999, "INCLINATION": 99.2595, "RA_OF_ASC_NODE": 275.5857, "ARG_OF_PERICENTER": 92.0584, "MEAN_ANOMALY": 271.3952, "EPHEMERIS_TYPE": 0, "CLASSIFICATION_TYPE": "U", "NORAD_CAT_ID": 36281, "ELEMENT_SET_NO": 999, "REV_AT_EPOCH": 84616, "BSTAR": 0.00281607, "MEAN_MOTION_DOT": 2.757e-05, "MEAN_MOTION_DDOT": 0}, "tle": {"line1": "1 36281U 99025DXJ 25354.02113870  .00002757  00000+0  28161-2 0  9996", "line2": "2 36281  99.2595 275.5857 0291399  92.0584 271.3952 13.60294135846169"}}, "geometry": {"type": "Point", "coordinates": [99.69274934735972, 10.75474495964911]}}, {"type": "Feature", "properties": {"norad_id": 36283, "name": "FENGYUN 1C DEB", "group": "fengyun-1c-debris", "lat": 75.05851821837449, "lon": -74.75063075764338, "alt_km": 514.7535233432227, "timestamp": "2025-12-22T11:33:20.728057+00:00", "meta": {"OBJECT_NAME": "FENGYUN 1C DEB", "OBJECT_ID": "1999-025DXL", "EPOCH": "2025-12-22T03:14:40.344288", "MEAN_MOTION": 15.06754341, "ECCENTRICITY": 0.0066505, "INCLINATION": 99.4218, "RA_OF_ASC_NODE": 323.308, "ARG_OF_PERICENTER": 20.7587, "MEAN_ANOMALY": 339.6312, "EPHEMERIS_TYPE": 0, "CLASSIFICATION_TYPE": "U", "NORAD_CAT_ID": 36283, "ELEMENT_SET_NO": 999, "REV_AT_EPOCH": 66807, "BSTAR": 0.0021832, "MEAN_MOTION_DOT": 0.00034205, "MEAN_MOTION_DDOT": 0}, "tle": {"line1": "1 36283U 99025DXL 25356.13518917  .00034205  00000+0  21832-2 0  9994", "line2": "2 36283  99.4218 323.3080 0066505  20.7587 339.6312 15.06754341668077"}}, "geometry": {"type": "Point", "coordinates": [-74.75063075764338, 75.05851821837449]}}, {"type": "Feature", "properties": {"norad_id": 36644, "name": "FENGYUN 1C DEB", "group": "fengyun-1c-debris", "lat": -44.34261650315744, "lon": 142.05753797577844, "alt_km": 1244.662355888715, "timestamp": "2025-12-22T11:33:20.728067+00:00", "meta": {"OBJECT_NAME": "FENGYUN 1C DEB", "OBJECT_ID": "1999-025DXN", "EPOCH": "2025-12-20T03:15:14.582880", "MEAN_MOTION": 13.5921712, "ECCENTRICITY": 0.0285778, "INCLINATION": 98.4233, "RA_OF_ASC_NODE": 131.7114, "ARG_OF_PERICENTER": 160.4918, "MEAN_ANOMALY": 200.7431, "EPHEMERIS_TYPE": 0, "CLASSIFICATION_TYPE": "U", "NORAD_CAT_ID": 36644, "ELEMENT_SET_NO": 999, "REV_AT_EPOCH": 61668, "BSTAR": 0.0010197403, "MEAN_MOTION_DOT": 9.49e-06, "MEAN_MOTION_DDOT": 0}, "tle": {"line1": "1 36644U 99025DXN 25354.13558545  .00000949  00000+0  10197-2 0  9994", "line2": "2 36644  98.4233 131.7114 0285778 160.4918 200.7431 13.59217120616683"}}, "geometry": {"type": "Point", "coordinates": [142.05753797577844, -44.34261650315744]}}, {"type": "Feature", "properties": {"norad_id": 36647, "name": "FENGYUN 1C DEB", "group": "fengyun-1c-debris", "lat": 69.17559378395522, "lon": 117.4586834085162, "alt_km": 1088.8131699091618, "timestamp": "2025-12-22T11:33:20.728077+00:00", "meta": {"OBJECT_NAME": "FENGYUN 1C DEB", "OBJECT_ID": "1999-025DXR", "EPOCH": "2025-12-17T15:22:01.202880", "MEAN_MOTION": 13.88856712, "ECCENTRICITY": 0.02401846, "INCLINATION": 96.1202, "RA_OF_ASC_NODE": 130.6548, "ARG_OF_PERICENTER": 285.5466, "MEAN_ANOMALY": 71.9303, "EPHEMERIS_TYPE": 0, "CLASSIFICATION_TYPE": "U", "NORAD_CAT_ID": 36647, "ELEMENT_SET_NO": 999, "REV_AT_EPOCH": 30480, "BSTAR": 0.0022455743, "MEAN_MOTION_DOT": 3.394e-05, "MEAN_MOTION_DDOT": 0}, "tle": {"line1": "1 36647U 99025DXR 25351.64029170  .00003394  00000+0  22456-2 0  9995", "line2": "2 36647  96.1202 130.6548 0240184 285.5466  71.9303 13.88856712304807"}}, "geometry": {"type": "Point", "coordinates": [117.4586834085162, 69.17559378395522]}}, {"type": "Feature", "properties": {"norad_id": 36652, "name": "FENGYUN 1C DEB", "group": "fengyun-1c-debris", "lat": -6.235667536801584, "lon": 79.78451065069558, "alt_km": 787.5061748396347, "timestamp": "2025-12-22T11:33:20.728087+00:00", "meta": {"OBJECT_NAME": "FENGYUN 1C DEB", "OBJECT_ID": "1999-025DXW", "EPOCH": "2025-12-21T11:57:28.108800", "MEAN_MOTION": 14.22873266, "ECCENTRICITY": 0.00508017, "INCLINATION": 98.941, "RA_OF_ASC_NODE": 77.8011, "ARG_OF_PERICENTER": 326.9927, "MEAN_ANOMALY": 32.8083, "EPHEMERIS_TYPE": 0, "CLASSIFICATION_TYPE": "U", "NORAD_CAT_ID": 36652, "ELEMENT_SET_NO": 999, "REV_AT_EPOCH": 64449, "BSTAR": 0.0012965262, "MEAN_MOTION_DOT": 2.906e-05, "MEAN_MOTION_DDOT": 0}, "tle": {"line1": "1 36652U 99025DXW 25355.49824200  .00002906  00000+0  12965-2 0  9997", "line2": "2 36652  98.9410  77.8011 0050801 326.9927  32.8083 14.22873266644493"}}, "geometry": {"type": "Point", "coordinates": [79.78451065069558, -6.235667536801584]}}, {"type": "Feature", "properties": {"norad_id": 36657, "name": "FENGYUN 1C DEB", "group": "fengyun-1c-debris", "lat": -50.120581230810046, "lon": -42.64783542911802, "alt_km": 754.4470897706833, "timestamp": "2025-12-22T11:33:20.728097+00:00", "meta": {"OBJECT_NAME": "FENGYUN 1C DEB", "OBJECT_ID": "1999-025DYB", "EPOCH": "2025-12-21T16:29:00.574944", "MEAN_MOTION": 14.65578077, "ECCENTRICITY": 0.0105539, "INCLINATION": 99.4132, "RA_OF_ASC_NODE": 147.8952, "ARG_OF_PERICENTER": 39.9824, "MEAN_ANOMALY": 320.9086, "EPHEMERIS_TYPE": 0, "CLASSIFICATION_TYPE": "U", "NORAD_CAT_ID": 36657, "ELEMENT_SET_NO": 999, "REV_AT_EPOCH": 66387, "BSTAR": 0.00042467, "MEAN_MOTION_DOT": 2.435e-05, "MEAN_MOTION_DDOT": 0}, "tle": {"line1": "1 36657U 99025DYB 25355.68681221  .00002435  00000+0  42467-3 0  9995", "line2": "2 36657  99.4132 147.8952 0105539  39.9824 320.9086 14.65578077663879"}}, "geometry": {"type": "Point", "coordinates": [-42.64783542911802, -50.120581230810046]}}, {"type": "Feature", "properties": {"norad_id": 36659, "name": "FENGYUN 1C DEB", "group": "fengyun-1c-debris", "lat": 4.2040834953180335, "lon": -0.2419939072345008, "alt_km": 869.0170925216871, "timestamp": "2025-12-22T11:33:20.728107+00:00", "meta": {"OBJECT_NAME": "FENGYUN 1C DEB", "OBJECT_ID": "1999-025DYD", "EPOCH": "2025-12-18T07:09:04.054176", "MEAN_MOTION": 13.87384482, "ECCENTRICITY": 0.01357919, "INCLINATION": 99.8541, "RA_OF_ASC_NODE": 356.081, "ARG_OF_PERICENTER": 60.2917, "MEAN_ANOMALY": 301.1674, "EPHEMERIS_TYPE": 0, "CLASSIFICATION_TYPE": "U", "NORAD_CAT_ID": 36659, "ELEMENT_SET_NO": 999, "REV_AT_EPOCH": 60502, "BSTAR": 0.00061832075, "MEAN_MOTION_DOT": 7.35e-06, "MEAN_MOTION_DDOT": 0}, "tle": {"line1": "1 36659U 99025DYD 25352.29796359  .00000735  00000+0  61832-3 0  9998", "line2": "2 36659  99.8541 356.0810 0135791  60.2917 301.1674 13.87384482605024"}}, "geometry": {"type": "Point", "coordinates": [-0.2419939072345008, 4.2040834953180335]}}]}